IRIDIUM 150             
1 43257U 18030J   25128.83957613  .00000267  00000+0  88142-4 0  9994
2 43257  86.3931  99.5173 0002477  92.6270 267.5210 14.34221060372203
IRIDIUM 143             
1 43258U 18030K   25129.44846678  .00000154  00000+0  47992-4 0  9994
2 43258  86.3936  99.3397 0002708  92.8113 267.3392 14.34217873372251
IRIDIUM 161             
1 43478U 18047C   25129.38618842  .00000483  00000+0  13772-3 0  9992
2 43478  86.4476 257.1541 0002074  91.5553 268.5886 14.43276591366896
IRIDIUM 152             
1 43479U 18047D   25129.42118215  .00000232  00000+0  75876-4 0  9993
2 43479  86.3952 256.9999 0002050  96.6985 263.4444 14.34217234364620
IRIDIUM 147             
1 43480U 18047E   25129.42752641  .00000135  00000+0  41105-4 0  9992
2 43480  86.3952 256.9951 0002149  90.6104 269.5338 14.34217855364613
IRIDIUM 110             
1 43481U 18047F   25128.87571939  .00000130  00000+0  39324-4 0  9995
2 43481  86.3952 257.3072 0001699  89.6104 270.5287 14.34217145364527
IRIDIUM 162             
1 43482U 18047G   25129.44921529  .00000471  00000+0  13411-3 0  9990
2 43482  86.4476 257.0234 0001940  98.1360 262.0061 14.43283283366899
IRIDIUM 160             
1 43569U 18061A   25128.68201984  .00000030  00000+0  35255-5 0  9996
2 43569  86.4006 225.7708 0002048  92.1903 267.9527 14.34217691355393
